0 EXPLORER 1
1 00004U 58001A   21275.95528709  .07718844  00000-0  00000-0 0  9991
2 00004 033.1468 334.6171 0024739 311.5310 048.3249 16.27546304584022
0 VANGUARD 1
1     5U 58002B   21275.95528709  .00000022  00000-0  21121-4 0  9997
2     5  34.2509 212.6482 1843115 318.6306  28.8139 10.84820702256674
0 SPUTNIK 3
1 00008U 58004  B 60095.16166626  .02607090 +00000-0 +00000-0 0  9993
2 00008 065.0599 163.5585 0088318 135.6760 224.6847 16.28328133100004
0 EXPLORER 4
1 00009U 58005  A 59275.28696823  .00892850 +00000-0 +00000-0 0  9991
2 00009 050.2549 082.4216 0254534 057.7226 303.5234 15.51612549060703
0 VANGUARD 2
1 00011U 59001A   21275.91430875  .00000055  00000-0  33374-4 0  9995
2 00011  32.8669  81.3431 1467425  38.9376 330.8221 11.85795938331072
0 VANGUARD R/B
1    12U 59001B   21276.07073766  .00000310  00000-0  19202-3 0  9993
2    12  32.8957 137.2360 1663301  40.9164 330.5025 11.44393286576710
0 EXPLORER 6
1 00015U 59004  A 59272.62543869  .00008106 +00000-0 +00000-0 0  9997
2 00015 046.9509 049.6823 7601812 047.2577 341.8928 01.88913924001001
0 VANGUARD R/B
1 00016U 58002A   21275.57758214  .00000169  00000-0  26011-3 0  9997
2 00016  34.2614 231.5088 2028349  68.3367 312.0386 10.48767274508403
0 THOR ABLE R/B
1 00017U 59004  B 61008.85131000  .00070225 +00000-0 +00000-0 0  9995
2 00017 047.1000 284.3200 7526400 171.0000 203.9657 02.00290678010078
0 DISCOVERER 5
1 00018U 59005  A 59269.32477950  .04655228 +00000-0 +00000-0 0  9998
2 00018 079.9899 251.4819 0140209 012.7649 347.4143 16.16111033006800
0 DISCOVERER 6
1 00019U 59006  A 59278.50940704  .01114833 +00000-0 +00000-0 0  9991
2 00019 083.9999 286.5094 0222212 326.3932 034.3056 15.83731828007208
0 VANGUARD 3
1    20U 59007A   21276.38823285  .00000553  00000-0  21218-3 0  9990
2    20  33.3550 297.0320 1664535 255.7906  85.2827 11.55838933285362
